0 PSLV R/B
1 29713U 07001E   13282.09153472  .00001057  00000-0  14050-3 0  1311
2 29713 097.6376 282.8959 0027183 193.5937 166.4547 14.81464188364307
0 PSLV R/B
1 29713U 07001E   13283.10467227  .00001052  00000-0  13991-3 0  1329
2 29713 097.6374 283.8620 0027287 190.2835 169.7824 14.81466182364453
0 PSLV R/B
1 29713U 07001E   13284.11780858  .00001187  00000-0  15707-3 0  1336
2 29713 097.6373 284.8281 0027384 186.9708 173.1128 14.81468050364604
0 PSLV R/B
1 29713U 07001E   13285.60373920  .00001036  00000-0  13787-3 0  1349
2 29713 097.6371 286.2448 0027525 182.1334 177.9767 14.81471712364827
0 PSLV R/B
1 29713U 07001E   13286.61687088  .00001196  00000-0  15814-3 0  1355
2 29713 097.6371 287.2108 0027598 178.8768 181.2513 14.81473371364970
0 PSLV R/B
1 29713U 07001E   13287.63000159  .00001419  00000-0  18638-3 0  1362
2 29713 097.6370 288.1768 0027673 175.6382 184.5078 14.81477352365125
0 PSLV R/B
1 29713U 07001E   13288.84575412  .00001555  00000-0  20353-3 0  1374
2 29713 097.6371 289.3358 0027777 171.7530 188.4146 14.81481394365301
0 PSLV R/B
1 29713U 07001E   13290.06150533  .00001337  00000-0  17590-3 0  1382
2 29713 097.6372 290.4947 0027881 167.8559 192.3333 14.81485900365480
0 PSLV R/B
1 29713U 07001E   13291.61495828  .00001431  00000-0  18774-3 0  1394
2 29713 097.6374 291.9756 0028009 162.9109 197.3055 14.81490056365716
0 PSLV R/B
1 29713U 07001E   13292.62807641  .00001597  00000-0  20878-3 0  1409
2 29713 097.6376 292.9414 0028091 159.7011 200.5326 14.81491217365861
0 PSLV R/B
1 29713U 07001E   13293.64119353  .00001664  00000-0  21734-3 0  1416
2 29713 097.6377 293.9073 0028157 156.4970 203.7537 14.81494509366019
0 PSLV R/B
1 29713U 07001E   13295.46480123  .00001594  00000-0  20839-3 0  1422
2 29713 097.6378 295.6460 0028286 150.7436 209.5369 14.81502025366285
